NORAD_CAT_ID,OBJECT_NAME,OBJECT_TYPE,EPOCH,MEAN_MOTION,ECCENTRICITY,INCLINATION,RA_OF_ASC_NODE,ARG_OF_PERICENTER,MEAN_ANOMALY,BSTAR,MEAN_MOTION_DOT,MEAN_MOTION_DDOT,TLE_LINE0,TLE_LINE1,TLE_LINE2,SEMIMAJOR_AXIS,PERIOD,APOGEE,PERIGEE,DECAYED
53893.0,STARLINK-5052,PAYLOAD,2023-11-01 19:33:48,15.08843178,0.0002178,53.2174,219.7632,89.7244,270.3998,8.1151e-05,1.004e-05,0.0,0 STARLINK-5052,1 53893U 22119H   23305.81513918  .00001004  00000-0  81151-4 0  9997,2 53893  53.2174 219.7632 0002178  89.7244 270.3998 15.08843178 61600,6917.871,95.437,541.242,538.229,0.0
53893.0,STARLINK-5052,PAYLOAD,2023-11-01 22:44:34,15.08841498,0.0001453,53.216,219.1695,90.3568,269.759,5.9878e-05,6.65e-06,0.0,0 STARLINK-5052,1 53893U 22119H   23305.94761805  .00000665  00000-0  59878-4 0  9994,2 53893  53.2160 219.1695 0001453  90.3568 269.7590 15.08841498 62042,6917.876,95.437,540.746,538.736,0.0
53893.0,STARLINK-5052,PAYLOAD,2023-11-02 11:27:39,15.088401,0.0001828,53.2155,216.79,81.5932,278.5267,0.00030256,4.53e-05,0.0,0 STARLINK-5052,1 53893U 22119H   23306.47754019  .00004530  00000-0  30256-3 0  9995,2 53893  53.2155 216.7900 0001828  81.5932 278.5267 15.08840100 62128,6917.88,95.438,541.01,538.48,0.0
53893.0,STARLINK-5052,PAYLOAD,2023-11-02 22:35:21,15.0884133,0.0001899,53.2156,214.7078,79.5659,280.5547,0.00013598,1.877e-05,0.0,0 STARLINK-5052,1 53893U 22119H   23306.94122146  .00001877  00000-0  13598-3 0  9998,2 53893  53.2156 214.7078 0001899  79.5659 280.5547 15.08841330 62191,6917.876,95.437,541.055,538.428,0.0
53893.0,STARLINK-5052,PAYLOAD,2023-11-03 01:46:07,15.08845852,0.0001706,53.2166,214.1129,82.645,277.4736,0.00025002,3.694e-05,0.0,0 STARLINK-5052,1 53893U 22119H   23307.07369892  .00003694  00000-0  25002-3 0  9996,2 53893  53.2166 214.1129 0001706  82.6450 277.4736 15.08845852 61797,6917.863,95.437,540.908,538.547,0.0
53893.0,STARLINK-5052,PAYLOAD,2023-11-03 11:18:26,15.08843936,0.0001844,53.2151,212.3285,93.6086,266.5117,0.00029463,4.405e-05,0.0,0 STARLINK-5052,1 53893U 22119H   23307.47114039  .00004405  00000-0  29463-3 0  9997,2 53893  53.2151 212.3285 0001844  93.6086 266.5117 15.08843936 62271,6917.868,95.437,541.009,538.458,0.0
53893.0,STARLINK-5052,PAYLOAD,2023-11-03 22:26:08,15.0883898,0.0001918,53.2156,210.2473,91.2559,268.8653,0.00013037,1.787e-05,0.0,0 STARLINK-5052,1 53893U 22119H   23307.93482284  .00001787  00000-0  13037-3 0  9998,2 53893  53.2156 210.2473 0001918  91.2559 268.8653 15.08838980 62344,6917.884,95.438,541.075,538.422,0.0
53893.0,STARLINK-5052,PAYLOAD,2023-11-04 03:12:17,15.08848995,0.0001858,53.216,209.3542,99.0408,261.0794,0.0002752,4.095e-05,0.0,0 STARLINK-5052,1 53893U 22119H   23308.13353897  .00004095  00000-0  27520-3 0  9995,2 53893  53.2160 209.3542 0001858  99.0408 261.0794 15.08848995 61951,6917.853,95.437,541.003,538.433,0.0
53893.0,STARLINK-5052,PAYLOAD,2023-11-04 11:09:14,15.08833999,0.0001959,53.2175,207.8678,93.1942,266.9274,2.0566e-05,3.9e-07,0.0,0 STARLINK-5052,1 53893U 22119H   23308.46474657  .00000039  00000-0  20566-4 0  9997,2 53893  53.2175 207.8678 0001959  93.1942 266.9274 15.08833999 62428,6917.899,95.438,541.119,538.409,0.0
53893.0,STARLINK-5052,PAYLOAD,2023-11-04 20:41:32,15.08839647,0.0001522,53.2145,206.0844,92.2316,267.885,0.00015365,2.158e-05,0.0,0 STARLINK-5052,1 53893U 22119H   23308.86218488  .00002158  00000-0  15365-3 0  9993,2 53893  53.2145 206.0844 0001522  92.2316 267.8850 15.08839647 62068,6917.881,95.438,540.799,538.694,0.0
53893.0,STARLINK-5052,PAYLOAD,2023-11-04 22:16:55,15.0884217,0.0001561,53.2178,205.7869,91.2161,268.901,0.00020133,2.918e-05,0.0,0 STARLINK-5052,1 53893U 22119H   23308.92842430  .00002918  00000-0  20133-3 0  9993,2 53893  53.2178 205.7869 0001561  91.2161 268.9010 15.08842170 62499,6917.874,95.437,540.819,538.659,0.0
53893.0,STARLINK-5052,PAYLOAD,2023-11-05 03:03:04,15.08855367,0.0001597,53.215,204.8926,98.0085,262.1088,0.00054549,8.408e-05,0.0,0 STARLINK-5052,1 53893U 22119H   23309.12713931  .00008408  00000-0  54549-3 0  9997,2 53893  53.2150 204.8926 0001597  98.0085 262.1088 15.08855367 62103,6917.833,95.437,540.803,538.594,0.0
53893.0,STARLINK-5052,PAYLOAD,2023-11-05 22:07:41,15.08877956,0.0001828,53.2169,201.3224,98.5926,261.5274,0.00092923,0.00014547,0.0,0 STARLINK-5052,1 53893U 22119H   23309.92200853  .00014547  00000-0  92923-3 0  9998,2 53893  53.2169 201.3224 0001828  98.5926 261.5274 15.08877956 62649,6917.764,95.435,540.894,538.365,0.0
53893.0,STARLINK-5052,PAYLOAD,2023-11-06 02:53:50,15.08915644,0.0001633,53.2161,200.4305,89.2069,270.9111,0.0023337,0.00037126,0.0,0 STARLINK-5052,1 53893U 22119H   23310.12071915  .00037126  00000-0  23337-2 0  9997,2 53893  53.2161 200.4305 0001633  89.2069 270.9111 15.08915644 62258,6917.649,95.433,540.644,538.385,0.0
53893.0,STARLINK-5052,PAYLOAD,2023-11-06 21:58:29,15.08772342,0.0001161,53.2162,196.8649,60.6628,299.448,-0.00072866,-0.00011844,0.0,0 STARLINK-5052,1 53893U 22119H   23310.91561413 -.00011844  00000-0 -72866-3 0  9994,2 53893  53.2162 196.8649 0001161  60.6628 299.4480 15.08772342 62798,6918.087,95.442,540.755,539.149,0.0
53893.0,STARLINK-5052,PAYLOAD,2023-11-07 04:20:02,15.08755808,0.0001369,53.2166,195.6754,92.273,267.8419,0.0015839,0.00024951,0.0,0 STARLINK-5052,1 53893U 22119H   23311.18059001  .00024951  00000-0  15839-2 0  9996,2 53893  53.2166 195.6754 0001369  92.2730 267.8419 15.08755808 62419,6918.138,95.443,540.95,539.056,0.0
53893.0,STARLINK-5052,PAYLOAD,2023-11-07 09:06:12,15.08787396,0.0001606,53.2172,194.7842,94.4116,265.7059,0.0017736,0.00028011,0.0,0 STARLINK-5052,1 53893U 22119H   23311.37931692  .00028011  00000-0  17736-2 0  9991,2 53893  53.2172 194.7842 0001606  94.4116 265.7059 15.08787396 62447,6918.041,95.441,541.017,538.795,0.0
53893.0,STARLINK-5052,PAYLOAD,2023-11-08 01:00:05,15.08829657,0.0001347,53.2164,191.8107,104.216,255.8982,0.0019149,0.0003031,0.0,0 STARLINK-5052,1 53893U 22119H   23312.04172945  .00030310  00000-0  19149-2 0  9999,2 53893  53.2164 191.8107 0001347 104.2160 255.8982 15.08829657 62960,6917.912,95.438,540.709,538.845,0.0
53893.0,STARLINK-5052,PAYLOAD,2023-11-08 21:40:05,15.08887571,0.0001355,53.2161,187.9456,109.2247,250.8892,0.001978,0.00031373,0.0,0 STARLINK-5052,1 53893U 22119H   23312.90283650  .00031373  00000-0  19780-2 0  9991,2 53893  53.2161 187.9456 0001355 109.2247 250.8892 15.08887571 63099,6917.735,95.435,540.537,538.663,0.0
53893.0,STARLINK-5052,PAYLOAD,2023-11-09 00:50:50,15.08895068,0.0001293,53.2157,187.3504,106.8006,253.3128,0.0019284,0.00030582,0.0,0 STARLINK-5052,1 53893U 22119H   23313.03531191  .00030582  00000-0  19284-2 0  9992,2 53893  53.2157 187.3504 0001293 106.8006 253.3128 15.08895068 62694,6917.712,95.434,540.472,538.683,0.0
53893.0,STARLINK-5052,PAYLOAD,2023-11-09 19:55:27,15.08866626,9.18e-05,53.2156,183.7814,110.7135,249.3955,0.0012882,0.00020288,0.0,0 STARLINK-5052,1 53893U 22119H   23313.83018518  .00020288  00000-0  12882-2 0  9992,2 53893  53.2156 183.7814 0000918 110.7135 249.3955 15.08866626 62812,6917.799,95.436,540.299,539.029,0.0
53893.0,STARLINK-5052,PAYLOAD,2023-11-09 21:30:50,15.08865409,0.0001397,53.2153,183.4835,139.3509,220.7588,0.0011639,0.00018297,0.0,0 STARLINK-5052,1 53893U 22119H   23313.89642307  .00018297  00000-0  11639-2 0  9993,2 53893  53.2153 183.4835 0001397 139.3509 220.7588 15.08865409 63244,6917.803,95.436,540.634,538.701,0.0
53893.0,STARLINK-5052,PAYLOAD,2023-11-10 00:41:37,15.08860336,0.0001179,53.2154,182.8898,117.1238,242.9875,-1.0248e-05,-4.51e-06,0.0,0 STARLINK-5052,1 53893U 22119H   23314.02890269 -.00000451  00000-0 -10248-4 0  9993,2 53893  53.2154 182.8898 0001179 117.1238 242.9875 15.08860336 62842,6917.818,95.436,540.499,538.868,0.0
53893.0,STARLINK-5052,PAYLOAD,2023-11-10 08:38:33,15.08845102,0.0001303,53.2152,181.4032,92.4568,267.6573,0.00027319,4.063e-05,0.0,0 STARLINK-5052,1 53893U 22119H   23314.36010584  .00004063  00000-0  27319-3 0  9991,2 53893  53.2152 181.4032 0001303  92.4568 267.6573 15.08845102 62893,6917.865,95.437,540.631,538.828,0.0
53893.0,STARLINK-5052,PAYLOAD,2023-11-10 19:46:14,15.08854554,0.0001425,53.2151,179.3195,91.7709,268.3446,0.0013986,0.0002205,0.0,0 STARLINK-5052,1 53893U 22119H   23314.82378319  .00022050  00000-0  13986-2 0  9995,2 53893  53.2151 179.3195 0001425  91.7709 268.3446 15.08854554 63385,6917.836,95.437,540.687,538.715,0.0
53893.0,STARLINK-5052,PAYLOAD,2023-11-11 00:32:24,15.08864672,0.0001511,53.2151,178.4271,94.7844,265.3321,0.0015808,0.00024977,0.0,0 STARLINK-5052,1 53893U 22119H   23315.02250029  .00024977  00000-0  15808-2 0  9990,2 53893  53.2151 178.4271 0001511  94.7844 265.3321 15.08864672 62996,6917.805,95.436,540.715,538.625,0.0
53893.0,STARLINK-5052,PAYLOAD,2023-11-11 19:37:01,15.08846971,0.0001355,53.2154,174.8605,86.9613,273.1534,0.00052707,8.112e-05,0.0,0 STARLINK-5052,1 53893U 22119H   23315.81738399  .00008112  00000-0  52707-3 0  9991,2 53893  53.2154 174.8605 0001355  86.9613 273.1534 15.08846971 63113,6917.859,95.437,540.661,538.787,0.0
53893.0,STARLINK-5052,PAYLOAD,2023-11-11 21:12:25,15.08844345,0.0001405,53.2156,174.5631,92.6074,267.5079,0.00028841,4.306e-05,0.0,0 STARLINK-5052,1 53893U 22119H   23315.88362359  .00004306  00000-0  28841-3 0  9990,2 53893  53.2156 174.5631 0001405  92.6074 267.5079 15.08844345 63543,6917.867,95.437,540.704,538.76,0.0
53893.0,STARLINK-5052,PAYLOAD,2023-11-12 08:20:07,15.08831711,0.0001382,53.2146,172.4816,92.3523,267.7627,0.0002587,3.831e-05,0.0,0 STARLINK-5052,1 53893U 22119H   23316.34730868  .00003831  00000-0  25870-3 0  9997,2 53893  53.2146 172.4816 0001382  92.3523 267.7627 15.08831711 63199,6917.906,95.438,540.727,538.815,0.0
53893.0,STARLINK-5052,PAYLOAD,2023-11-12 21:03:12,15.08839137,0.0001442,53.215,170.1029,91.3576,268.7581,0.00018568,2.668e-05,0.0,0 STARLINK-5052,1 53893U 22119H   23316.87722983  .00002668  00000-0  18568-3 0  9997,2 53893  53.2150 170.1029 0001442  91.3576 268.7581 15.08839137 63694,6917.883,95.438,540.746,538.75,0.0
